{"type": "FeatureCollection", "features": [ {"type": "Feature", "properties": {"norad_id": 33841, "name": "COSMOS 2251 DEB", "group": "cosmos-2251-debris", "lat": 55.709485516041426, "lon": 85.88493725189282, "alt_km": 764.4149284495361, "timestamp": "2025-12-05T20:43:02.446385+00:00", "meta": {"OBJECT_NAME": "COSMOS 2251 DEB", "OBJECT_ID": "1993-036CJ", "EPOCH": "2025-12-05T07:20:39.482592", "MEAN_MOTION": 14.37842465, "ECCENTRICITY": 0.00202158, "INCLINATION": 74.0374, "RA_OF_ASC_NODE": 291.7285, "ARG_OF_PERICENTER": 13.7991, "MEAN_ANOMALY": 103.5915, "EPHEMERIS_TYPE": 0, "CLASSIFICATION_TYPE": "U", "NORAD_CAT_ID": 33841, "ELEMENT_SET_NO": 999, "REV_AT_EPOCH": 88007, "BSTAR": 0.00045500018, "MEAN_MOTION_DOT": 1.349e-05, "MEAN_MOTION_DDOT": 0}, "tle": {"line1": "1 33841U 93036CJ  25339.30601253  .00001349  00000+0  45500-3 0  9995", "line2": "2 33841  74.0374 291.7285 0020215  13.7991 103.5915 14.37842465880071"}}, "geometry": {"type": "Point", "coordinates": [85.88493725189282, 55.709485516041426]}}, {"type": "Feature", "properties": {"norad_id": 33842, "name": "COSMOS 2251 DEB", "group": "cosmos-2251-debris", "lat": -68.31142944466188, "lon": 98.45893489170118, "alt_km": 754.0727433286102, "timestamp": "2025-12-05T20:43:02.446395+00:00", "meta": {"OBJECT_NAME": "COSMOS 2251 DEB", "OBJECT_ID": "1993-036CK", "EPOCH": "2025-12-05T02:53:34.165248", "MEAN_MOTION": 14.42672934, "ECCENTRICITY": 0.00470494, "INCLINATION": 74.0332, "RA_OF_ASC_NODE": 233.7932, "ARG_OF_PERICENTER": 342.6451, "MEAN_ANOMALY": 17.3095, "EPHEMERIS_TYPE": 0, "CLASSIFICATION_TYPE": "U", "NORAD_CAT_ID": 33842, "ELEMENT_SET_NO": 999, "REV_AT_EPOCH": 88227, "BSTAR": 0.00062390345, "MEAN_MOTION_DOT": 2.076e-05, "MEAN_MOTION_DDOT": 0}, "tle": {"line1": "1 33842U 93036CK  25339.12053432  .00002076  00000+0  62390-3 0  9990", "line2": "2 33842  74.0332 233.7932 0047049 342.6451  17.3095 14.42672934882273"}}, "geometry": {"type": "Point", "coordinates": [98.45893489170118, -68.31142944466188]}}, {"type": "Feature", "properties": {"norad_id": 33844, "name": "COSMOS 2251 DEB", "group": "cosmos-2251-debris", "lat": 45.56348996340816, "lon": 82.27063768861161, "alt_km": 749.7684060723213, "timestamp": "2025-12-05T20:43:02.446405+00:00", "meta": {"OBJECT_NAME": "COSMOS 2251 DEB", "OBJECT_ID": "1993-036CM", "EPOCH": "2025-12-05T07:23:33.817056", "MEAN_MOTION": 14.33691139, "ECCENTRICITY": 0.00471373, "INCLINATION": 74.0671, "RA_OF_ASC_NODE": 66.3457, "ARG_OF_PERICENTER": 90.6657, "MEAN_ANOMALY": 333.3572, "EPHEMERIS_TYPE": 0, "CLASSIFICATION_TYPE": "U", "NORAD_CAT_ID": 33844, "ELEMENT_SET_NO": 999, "REV_AT_EPOCH": 87619, "BSTAR": 0.00073274337, "MEAN_MOTION_DOT": 2.034e-05, "MEAN_MOTION_DDOT": 0}, "tle": {"line1": "1 33844U 93036CM  25339.30803029  .00002034  00000+0  73274-3 0  9994", "line2": "2 33844  74.0671  66.3457 0047137  90.6657 333.3572 14.33691139876192"}}, "geometry": {"type": "Point", "coordinates": [82.27063768861161, 45.56348996340816]}}, {"type": "Feature", "properties": {"norad_id": 33848, "name": "COSMOS 2251 DEB", "group": "cosmos-2251-debris", "lat": -27.052553843223123, "lon": 2.0299213949784978, "alt_km": 754.0785792747638, "timestamp": "2025-12-05T20:43:02.446415+00:00", "meta": {"OBJECT_NAME": "COSMOS 2251 DEB", "OBJECT_ID": "1993-036CR", "EPOCH": "2025-12-05T04:30:25.415424", "MEAN_MOTION": 14.43985277, "ECCENTRICITY": 0.00409337, "INCLINATION": 74.032, "RA_OF_ASC_NODE": 11.6939, "ARG_OF_PERICENTER": 70.1437, "MEAN_ANOMALY": 352.4937, "EPHEMERIS_TYPE": 0, "CLASSIFICATION_TYPE": "U", "NORAD_CAT_ID": 33848, "ELEMENT_SET_NO": 999, "REV_AT_EPOCH": 87722, "BSTAR": 0.0018366702, "MEAN_MOTION_DOT": 6.319e-05, "MEAN_MOTION_DDOT": 0}, "tle": {"line1": "1 33848U 93036CR  25339.18779416  .00006319  00000+0  18367-2 0  9997", "line2": "2 33848  74.0320  11.6939 0040933  70.1437 352.4937 14.43985277877223"}}, "geometry": {"type": "Point", "coordinates": [2.0299213949784978, -27.052553843223123]}}, {"type": "Feature", "properties": {"norad_id": 33892, "name": "COSMOS 2251 DEB", "group": "cosmos-2251-debris", "lat": 44.863535068073844, "lon": 131.41814038568174, "alt_km": 823.0048247193354, "timestamp": "2025-12-05T20:43:02.446425+00:00", "meta": {"OBJECT_NAME": "COSMOS 2251 DEB", "OBJECT_ID": "1993-036CV", "EPOCH": "2025-12-04T11:01:31.951776", "MEAN_MOTION": 14.23283133, "ECCENTRICITY": 0.0113482, "INCLINATION": 73.8021, "RA_OF_ASC_NODE": 117.1625, "ARG_OF_PERICENTER": 149.9576, "MEAN_ANOMALY": 268.4998, "EPHEMERIS_TYPE": 0, "CLASSIFICATION_TYPE": "U", "NORAD_CAT_ID": 33892, "ELEMENT_SET_NO": 999, "REV_AT_EPOCH": 86837, "BSTAR": 0.0020755, "MEAN_MOTION_DOT": 4.999e-05, "MEAN_MOTION_DDOT": 0}, "tle": {"line1": "1 33892U 93036CV  25338.45939759  .00004999  00000+0  20755-2 0  9999", "line2": "2 33892  73.8021 117.1625 0113482 149.9576 268.4998 14.23283133868379"}}, "geometry": {"type": "Point", "coordinates": [131.41814038568174, 44.863535068073844]}}, {"type": "Feature", "properties": {"norad_id": 33894, "name": "COSMOS 2251 DEB", "group": "cosmos-2251-debris", "lat": -30.434806564883615, "lon": -10.132975267909275, "alt_km": 880.0861343885454, "timestamp": "2025-12-05T20:43:02.446436+00:00", "meta": {"OBJECT_NAME": "COSMOS 2251 DEB", "OBJECT_ID": "1993-036CX", "EPOCH": "2025-12-05T02:41:56.500800", "MEAN_MOTION": 13.21266426, "ECCENTRICITY": 0.05795003, "INCLINATION": 73.7668, "RA_OF_ASC_NODE": 0.8831, "ARG_OF_PERICENTER": 281.2754, "MEAN_ANOMALY": 72.3777, "EPHEMERIS_TYPE": 0, "CLASSIFICATION_TYPE": "U", "NORAD_CAT_ID": 33894, "ELEMENT_SET_NO": 999, "REV_AT_EPOCH": 80607, "BSTAR": 0.0035429132, "MEAN_MOTION_DOT": 3.505e-05, "MEAN_MOTION_DDOT": 0}, "tle": {"line1": "1 33894U 93036CX  25339.11245950  .00003505  00000+0  35429-2 0  9994", "line2": "2 33894  73.7668   0.8831 0579500 281.2754  72.3777 13.21266426806078"}}, "geometry": {"type": "Point", "coordinates": [-10.132975267909275, -30.434806564883615]}}, {"type": "Feature", "properties": {"norad_id": 33896, "name": "COSMOS 2251 DEB", "group": "cosmos-2251-debris", "lat": -40.61117686896269, "lon": 3.633963285550393, "alt_km": 884.0228076818275, "timestamp": "2025-12-05T20:43:02.446446+00:00", "meta": {"OBJECT_NAME": "COSMOS 2251 DEB", "OBJECT_ID": "1993-036CZ", "EPOCH": "2025-12-05T06:57:57.636288", "MEAN_MOTION": 14.19010564, "ECCENTRICITY": 0.01261117, "INCLINATION": 73.7659, "RA_OF_ASC_NODE": 170.2068, "ARG_OF_PERICENTER": 347.089, "MEAN_ANOMALY": 190.8611, "EPHEMERIS_TYPE": 0, "CLASSIFICATION_TYPE": "U", "NORAD_CAT_ID": 33896, "ELEMENT_SET_NO": 999, "REV_AT_EPOCH": 86634, "BSTAR": 0.00084694061, "MEAN_MOTION_DOT": 1.886e-05, "MEAN_MOTION_DDOT": 0}, "tle": {"line1": "1 33896U 93036CZ  25339.29025042  .00001886  00000+0  84694-3 0  9992", "line2": "2 33896  73.7659 170.2068 0126111 347.0890 190.8611 14.19010564866349"}}, "geometry": {"type": "Point", "coordinates": [3.633963285550393, -40.61117686896269]}}, {"type": "Feature", "properties": {"norad_id": 33899, "name": "COSMOS 2251 DEB", "group": "cosmos-2251-debris", "lat": -69.62473385477769, "lon": 48.51780238810633, "alt_km": 716.427779649699, "timestamp": "2025-12-05T20:43:02.446456+00:00", "meta": {"OBJECT_NAME": "COSMOS 2251 DEB", "OBJECT_ID": "1993-036DC", "EPOCH": "2025-12-04T01:14:55.253760", "MEAN_MOTION": 14.61037562, "ECCENTRICITY": 0.0057677, "INCLINATION": 74.0533, "RA_OF_ASC_NODE": 102.3156, "ARG_OF_PERICENTER": 167.407, "MEAN_ANOMALY": 312.2659, "EPHEMERIS_TYPE": 0, "CLASSIFICATION_TYPE": "U", "NORAD_CAT_ID": 33899, "ELEMENT_SET_NO": 999, "REV_AT_EPOCH": 88712, "BSTAR": 0.002362534, "MEAN_MOTION_DOT": 0.00011865, "MEAN_MOTION_DDOT": 0}, "tle": {"line1": "1 33899U 93036DC  25338.05202840  .00011865  00000+0  23625-2 0  9995", "line2": "2 33899  74.0533 102.3156 0057677 167.4070 312.2659 14.61037562887120"}}, "geometry": {"type": "Point", "coordinates": [48.51780238810633, -69.62473385477769]}}, {"type": "Feature", "properties": {"norad_id": 33900, "name": "COSMOS 2251 DEB", "group": "cosmos-2251-debris", "lat": 25.493487062907107, "lon": 20.819607412023146, "alt_km": 723.1573989315475, "timestamp": "2025-12-05T20:43:02.446466+00:00", "meta": {"OBJECT_NAME": "COSMOS 2251 DEB", "OBJECT_ID": "1993-036DD", "EPOCH": "2025-12-05T04:25:03.292032", "MEAN_MOTION": 14.5830464, "ECCENTRICITY": 0.00472862, "INCLINATION": 74.0195, "RA_OF_ASC_NODE": 14.2591, "ARG_OF_PERICENTER": 168.4402, "MEAN_ANOMALY": 254.5569, "EPHEMERIS_TYPE": 0, "CLASSIFICATION_TYPE": "U", "NORAD_CAT_ID": 33900, "ELEMENT_SET_NO": 999, "REV_AT_EPOCH": 88926, "BSTAR": 0.00079173246, "MEAN_MOTION_DOT": 3.69e-05, "MEAN_MOTION_DDOT": 0}, "tle": {"line1": "1 33900U 93036DD  25339.18406588  .00003690  00000+0  79173-3 0  9995", "line2": "2 33900  74.0195  14.2591 0047286 168.4402 254.5569 14.58304640889261"}}, "geometry": {"type": "Point", "coordinates": [20.819607412023146, 25.493487062907107]}}, {"type": "Feature", "properties": {"norad_id": 33901, "name": "COSMOS 2251 DEB", "group": "cosmos-2251-debris", "lat": 35.682190373459385, "lon": 75.91082571838271, "alt_km": 541.1105481559953, "timestamp": "2025-12-05T20:43:02.446476+00:00", "meta": {"OBJECT_NAME": "COSMOS 2251 DEB", "OBJECT_ID": "1993-036DE", "EPOCH": "2025-12-04T22:21:30.729888", "MEAN_MOTION": 15.14520629, "ECCENTRICITY": 0.0034506, "INCLINATION": 73.773, "RA_OF_ASC_NODE": 65.8058, "ARG_OF_PERICENTER": 198.0649, "MEAN_ANOMALY": 161.9321, "EPHEMERIS_TYPE": 0, "CLASSIFICATION_TYPE": "U", "NORAD_CAT_ID": 33901, "ELEMENT_SET_NO": 999, "REV_AT_EPOCH": 89395, "BSTAR": 0.0062395, "MEAN_MOTION_DOT": 0.00118526, "MEAN_MOTION_DDOT": 0}, "tle": {"line1": "1 33901U 93036DE  25338.93160567  .00118526  00000+0  62395-2 0  9994", "line2": "2 33901  73.7730  65.8058 0034506 198.0649 161.9321 15.14520629893954"}}, "geometry": {"type": "Point", "coordinates": [75.91082571838271, 35.682190373459385]}}]}